{
  "type": "FeatureCollection",
  "features": [
    {
      "type": "Feature",
      "geometry": {
        "type": "Point",
        "coordinates": [
          -98.50067138671876,
          33.88780249693978
        ]
      },
      "properties": {
        "index": 1
      }
    },
    {
      "type": "Feature",
      "geometry": {
        "type": "Point",
        "coordinates": [
          -98.52642059326172,
          33.90547084410301
        ]
      },
      "properties": {
        "index": 2
      }
    }
  ]
}